     2.10           N: GPS NAV DATA                         RINEX VERSION / TYPE
teqc  2009Oct19     WCDA Operator       20110102 00:04:08UTCPGM / RUN BY / DATE
Solaris x86 5.10|AMD64|cc SC5.8 -xarch=amd64|=+|=+          COMMENT
teqc  2009Oct19     WCDA Operator       20110102 00:03:46UTCCOMMENT
                                                            END OF HEADER
11 11  1  1  4  0  0.0-1.157568767667D-04-3.069544618484D-12 0.000000000000D+00
    1.500000000000D+01-1.787500000000D+01 6.407052666191D-09 2.320503601741D+00
   -1.098960638046D-06 1.157910528127D-02 5.850568413734D-06 5.153483915329D+03
    5.328000000000D+05-5.401670932770D-08 1.516757847487D+00-1.881271600723D-07
    8.875839099468D-01 2.277187500000D+02 8.998481300580D-01-8.773222148761D-09
   -3.146559679479D-10 1.000000000000D+00 1.616000000000D+03 0.000000000000D+00
    2.000000000000D+00 0.000000000000D+00-1.164153218269D-08 1.500000000000D+01
    5.256000000000D+05
12 11  1  1  4  0  0.0-3.975676372647D-05 3.410605131648D-12 0.000000000000D+00
    5.100000000000D+01-9.034375000000D+01 3.950878735282D-09 2.437403477810D+00
   -4.669651389122D-06 3.426971146837D-03 1.061707735062D-05 5.153540889740D+03
    5.328000000000D+05-7.450580596924D-09-3.175371829954D-01 1.508742570877D-07
    9.737673193517D-01 1.792500000000D+02-3.298591810561D-01-7.601387963518D-09
    2.764400930388D-10 1.000000000000D+00 1.616000000000D+03 0.000000000000D+00
    2.000000000000D+00 0.000000000000D+00-1.164153218269D-08 5.100000000000D+01
    5.256000000000D+05
14 11  1  1  4  0  0.0 1.202318817377D-04 3.069544618484D-12 0.000000000000D+00
    1.000000000000D+01 8.371875000000D+01 4.138744014170D-09-1.522531525789D+00
    4.472211003304D-06 5.685427109711D-03 2.184882760048D-06 5.153616725922D+03
    5.328000000000D+05 1.117587089539D-07-2.373058660173D+00 8.381903171539D-08
    9.843414536126D-01 3.486562500000D+02-2.077168827516D+00-8.052478683851D-09
    2.300095808261D-10 1.000000000000D+00 1.616000000000D+03 0.000000000000D+00
    2.000000000000D+00 0.000000000000D+00-8.847564458847D-09 1.000000000000D+01
    5.256000000000D+05
17 11  1  1  4  0  0.0 1.808372326195D-04 6.821210263297D-13 0.000000000000D+00
    4.100000000000D+01 4.687500000000D+00 4.841987255588D-09-1.019456073763D+00
    2.235174179077D-07 5.894463160075D-03 6.660819053650D-06 5.153686660767D+03
    5.328000000000D+05 2.030283212662D-07 7.425517549468D-01 5.587935447693D-08
    9.607593326712D-01 2.532187500000D+02-2.489788551013D+00-8.018905539586D-09
    2.585822111989D-10 1.000000000000D+00 1.616000000000D+03 0.000000000000D+00
    2.000000000000D+00 0.000000000000D+00-1.024454832077D-08 4.100000000000D+01
    5.256000000000D+05
19 11  1  1  4  0  0.0-9.730644524097D-05-3.524291969370D-12 0.000000000000D+00
    6.400000000000D+01 8.687500000000D+00 4.865559954936D-09-1.827225377923D+00
    4.433095455170D-07 6.849095225334D-03 6.500631570816D-06 5.153596950531D+03
    5.328000000000D+05-9.313225746155D-09 7.969846120995D-01-8.568167686462D-08
    9.582638709195D-01 2.547812500000D+02-1.439397428681D-02-8.080336399985D-09
    3.664438474882D-10 1.000000000000D+00 1.616000000000D+03 0.000000000000D+00
    2.000000000000D+00 0.000000000000D+00-1.490116119385D-08 6.400000000000D+01
    5.256000000000D+05
20 11  1  1  4  0  0.0 4.889955744147D-05-1.136868377216D-13 0.000000000000D+00
    3.700000000000D+01 9.343750000000D+01 4.808771603138D-09 6.785565059736D-01
    4.736706614494D-06 4.574771504849D-03 9.762123227119D-06 5.153765819550D+03
    5.328000000000D+05-5.960464477539D-08 2.774941657767D+00-7.450580596924D-09
    9.349425092740D-01 1.772812500000D+02 1.256173497514D+00-8.143196339461D-09
   -2.285809458380D-10 1.000000000000D+00 1.616000000000D+03 0.000000000000D+00
    2.000000000000D+00 0.000000000000D+00-7.916241884232D-09 3.700000000000D+01
    5.256000000000D+05
22 11  1  1  4  0  0.0 1.558829098940D-04-9.094947017729D-13 0.000000000000D+00
    7.000000000000D+01 8.925000000000D+01 4.926633767610D-09-5.683568283547D-01
    4.725530743599D-06 5.394427804276D-03 1.019798219204D-05 5.153723459244D+03
    5.328000000000D+05-3.539025783539D-08 2.833304149873D+00 8.754432201385D-08
    9.326218486777D-01 1.691562500000D+02-1.933756468079D+00-8.212484914338D-09
   -1.357199352903D-10 1.000000000000D+00 1.616000000000D+03 0.000000000000D+00
    2.000000000000D+00 0.000000000000D+00-1.769512891769D-08 7.000000000000D+01
    5.256000000000D+05
24 11  1  1  4  0  0.0 3.527658991516D-04 3.296918293927D-12 0.000000000000D+00
    5.000000000000D+01-3.218750000000D+00 4.821986365755D-09-2.888326027584D+00
   -9.685754776001D-08 5.742115667090D-03 7.783994078636D-06 5.153728300095D+03
    5.328000000000D+05-4.470348358154D-08 1.815890254158D+00 1.043081283569D-07
    9.481585872738D-01 2.226250000000D+02-3.341619318029D-01-7.994261252975D-09
   -4.646622253635D-10 1.000000000000D+00 1.616000000000D+03 0.000000000000D+00
    4.000000000000D+00 0.000000000000D+00-1.396983861923D-09 5.000000000000D+01
    5.256000000000D+05
25 11  1  1  4  0  0.0-6.113480776548D-05-2.160049916711D-12 0.000000000000D+00
    9.600000000000D+01-9.009375000000D+01 4.308393641850D-09-1.981081746521D-01
   -4.673376679420D-06 4.513820167631D-04 1.001916825771D-05 5.153726310730D+03
    5.328000000000D+05 7.823109626770D-08-3.456396403412D-01-1.303851604462D-08
    9.625014296479D-01 1.859375000000D+02 1.691161724131D+00-7.812110958128D-09
    2.235807372575D-10 1.000000000000D+00 1.616000000000D+03 1.000000000000D+00
    2.000000000000D+00 0.000000000000D+00 4.656612873077D-09 9.600000000000D+01
    5.256000000000D+05
31 11  1  1  4  0  0.0 2.475921064615D-05 4.206412995700D-12 0.000000000000D+00
    8.700000000000D+01-1.024062500000D+02 4.212675541737D-09 2.332942884870D+00
   -5.153939127922D-06 7.832258241251D-03 2.993270754814D-06 5.153569969177D+03
    5.328000000000D+05 1.359730958939D-07-1.371534889933D+00-2.607703208923D-08
    9.785024472403D-01 3.291562500000D+02-1.028020120547D+00-8.006047380604D-09
   -2.646538821427D-10 1.000000000000D+00 1.616000000000D+03 0.000000000000D+00
    2.000000000000D+00 0.000000000000D+00-1.303851604462D-08 8.700000000000D+01
    5.256000000000D+05
23 11  1  1  4  0  0.0 3.348379395902D-04-2.160049916711D-12 0.000000000000D+00
    2.200000000000D+01 7.818750000000D+01 4.564832956078D-09-2.280312320847D+00
    4.036352038383D-06 6.923105102032D-03 2.129003405571D-06 5.153606967926D+03
    5.328000000000D+05-4.470348358154D-08-2.415905007181D+00-1.024454832077D-07
    9.660951200939D-01 3.465312500000D+02 3.132070354502D+00-8.240343518651D-09
    2.417957778444D-10 1.000000000000D+00 1.616000000000D+03 0.000000000000D+00
    2.000000000000D+00 0.000000000000D+00-2.002343535423D-08 2.200000000000D+01
    5.265300000000D+05
24 11  1  1  3 59 44.0 3.527640365064D-04 3.296918293927D-12 0.000000000000D+00
    2.400000000000D+01-3.218750000000D+00 4.822343857569D-09-2.890658789439D+00
   -9.685754776001D-08 5.742116947658D-03 7.783994078636D-06 5.153728307724D+03
    5.327840000000D+05-4.470348358154D-08 1.815890387283D+00 1.043081283569D-07
    9.481585887368D-01 2.226250000000D+02-3.341628373492D-01-7.994261252975D-09
   -4.646622253635D-10 1.000000000000D+00 1.616000000000D+03 0.000000000000D+00
    2.000000000000D+00 0.000000000000D+00-1.396983861923D-09 2.400000000000D+01
    5.269800000000D+05
30 11  1  1  4  0  0.0 3.096549771726D-04 3.183231456205D-12 0.000000000000D+00
    1.040000000000D+02-7.837500000000D+01 4.327322944420D-09-1.175482703276D+00
   -3.986060619354D-06 1.299837441184D-02 1.009926199913D-05 5.155362415314D+03
    5.328000000000D+05-1.564621925354D-07-3.743649394481D-01 2.384185791016D-07
    9.591353590147D-01 1.843437500000D+02 1.555570714301D+00-7.949974012433D-09
    1.692927603658D-10 1.000000000000D+00 1.616000000000D+03 0.000000000000D+00
    4.000000000000D+00 0.000000000000D+00-7.916241884232D-09 1.040000000000D+02
    5.294400000000D+05
30 11  1  1  3 59 44.0 3.096568398178D-04 3.183231456205D-12 0.000000000000D+00
    0.000000000000D+00-7.837500000000D+01 4.326965896695D-09-1.177814027082D+00
   -3.986060619354D-06 1.299838302657D-02 1.009926199913D-05 5.155362442017D+03
    5.327840000000D+05-1.564621925354D-07-3.743648341180D-01 2.384185791016D-07
    9.591353824214D-01 1.843437500000D+02 1.555570450976D+00-7.949974012433D-09
    1.696499191128D-10 1.000000000000D+00 1.616000000000D+03 0.000000000000D+00
    2.000000000000D+00 0.000000000000D+00-7.916241884232D-09 0.000000000000D+00
    5.314800000000D+05
13 11  1  1  4  0  0.0 2.873376943171D-04-1.136868377216D-12 0.000000000000D+00
    6.000000000000D+01 6.640625000000D+01 4.086956106875D-09-1.472311318259D+00
    3.624707460403D-06 4.359264392406D-03 2.071261405945D-06 5.153662178040D+03
    5.328000000000D+05-1.117587089539D-08-2.349827266526D+00 2.793967723846D-08
    9.912014261237D-01 3.599062500000D+02 1.791698877576D+00-8.083907765410D-09
    2.178662111829D-10 1.000000000000D+00 1.616000000000D+03 0.000000000000D+00
    2.000000000000D+00 0.000000000000D+00-1.071020960808D-08 6.000000000000D+01
    5.315100000000D+05
16 11  1  1  4  0  0.0-1.390599645674D-04-3.069544618484D-12 0.000000000000D+00
    8.600000000000D+01-7.759375000000D+01 3.961950767462D-09 2.895702240479D-02
   -4.148110747337D-06 5.991331767291D-03 1.033395528793D-05 5.153727849960D+03
    5.328000000000D+05 8.009374141693D-08-2.998589444544D-01-5.215406417847D-08
    9.748675200595D-01 1.885000000000D+02-1.695656905659D-01-7.724964667943D-09
    2.103659052510D-10 1.000000000000D+00 1.616000000000D+03 0.000000000000D+00
    2.000000000000D+00 0.000000000000D+00-9.778887033463D-09 8.600000000000D+01
    5.317200000000D+05
